OBJECT_NAME,OBJECT_ID,EPOCH,MEAN_MOTION,ECCENTRICITY,INCLINATION,RA_OF_ASC_NODE,ARG_OF_PERICENTER,MEAN_ANOMALY,EPHEMERIS_TYPE,CLASSIFICATION_TYPE,NORAD_CAT_ID,ELEMENT_SET_NO,REV_AT_EPOCH,BSTAR,MEAN_MOTION_DOT,MEAN_MOTION_DDOT
GPS BIIR-5  (PRN 22),2000-040A,2026-07-14T17:17:05.360352,2.00557829,.0120522,54.8485,214.0685,302.7313,60.8072,0,U,26407,999,19050,0,.59E-6,0
GPS BIIR-8  (PRN 16),2003-005A,2026-07-14T02:53:28.245984,2.00559061,.01482522,54.8791,213.8987,53.1664,13.5387,0,U,27663,999,17185,0,.68E-6,0
GPS BIIR-11 (PRN 19),2004-009A,2026-07-14T08:49:16.929984,2.00553701,.01171581,54.8072,274.5880,174.3050,223.3706,0,U,28190,999,16349,0,-.1E-6,0
GPS BIIR-13 (PRN 02),2004-045A,2026-07-14T06:55:18.859008,2.00556980,.01701681,55.1188,323.8048,317.0371,88.5743,0,U,28474,999,15897,0,-.9E-6,0
GPS BIIRM-1 (PRN 17),2005-038A,2026-07-14T08:59:42.163584,2.00563728,.01282021,54.8561,272.0791,296.4051,136.1669,0,U,28874,999,15238,0,-.5E-7,0
INMARSAT 4-F2 (SOUTHPAN/PRN 122),2005-044A,2026-07-14T19:13:56.715168,1.00270280,.0002676,5.1297,43.6594,61.5488,259.4290,0,U,28899,999,7579,0,-.272E-5,0
GPS BIIRM-2 (PRN 31),2006-042A,2026-07-14T15:54:39.089952,2.00568231,.0107172,54.7129,150.2481,55.1362,124.4379,0,U,29486,999,14494,0,.1E-6,0
GPS BIIRM-3 (PRN 12),2006-052A,2026-07-13T08:16:53.681664,2.00559540,.00847715,54.9324,212.9693,90.9951,270.0318,0,U,29601,999,14393,0,.8E-6,0
GPS BIIRM-4 (PRN 15),2007-047A,2026-07-14T03:34:59.503584,2.00553919,.01677547,54.1150,78.9543,87.9648,274.0127,0,U,32260,999,13735,0,-.34E-6,0
COSMOS 2433 (720),2007-052A,2026-07-14T14:26:37.963392,2.13104150,.0003477,65.5599,315.0115,203.3986,156.5929,0,U,32275,999,14564,0,-.63E-6,0
COSMOS 2432 (719),2007-052B,2026-07-13T17:23:49.510176,2.13103098,.00074051,65.5765,315.1695,322.3764,28.6295,0,U,32276,999,14564,0,-.64E-6,0
GPS BIIRM-5 (PRN 29),2007-062A,2026-07-13T10:36:03.637728,2.00561466,.00360453,55.0109,273.0962,167.3754,169.6583,0,U,32384,999,13603,0,-.2E-7,0
COSMOS 2434 (721),2007-065A,2026-07-13T10:42:58.980672,2.13101232,.00012681,64.3200,191.0300,326.1372,117.2431,0,U,32393,999,14433,0,.76E-6,0
COSMOS 2436 (723),2007-065C,2026-07-14T08:06:30.919104,2.13099954,.00173111,64.3286,191.0723,353.5012,185.8793,0,U,32395,999,14430,0,.64E-6,0
GPS BIIRM-6 (PRN 07),2008-012A,2026-07-14T13:21:30.622752,2.00573083,.0211667,54.5000,148.8314,248.1441,109.5515,0,U,32711,999,13430,0,.8E-7,0
GPS BIIRM-8 (PRN 05),2009-043A,2026-07-14T13:26:31.947936,2.00552733,.00537302,56.2274,26.3776,84.3590,285.8102,0,U,35752,999,12391,0,-.68E-6,0
COSMOS 2456 (730),2009-070A,2026-07-14T07:23:48.010848,2.13103651,.00036443,65.0270,70.0476,340.5553,202.1732,0,U,36111,999,12900,0,-.1E-6,0
COSMOS 2457 (733),2009-070B,2026-07-13T04:41:57.056928,2.13101172,.0004075,65.0120,69.9289,121.6619,54.8410,0,U,36112,999,12898,0,-.12E-6,0
COSMOS 2460 (732),2010-007C,2026-07-14T09:40:25.826880,2.13101627,.0001834,65.4033,313.5463,143.6465,240.9882,0,U,36402,999,12731,0,-.62E-6,0
GPS BIIF-1  (PRN 25),2010-022A,2026-07-14T11:22:04.583424,2.00563694,.01267038,54.2685,207.4628,66.1537,1.4490,0,U,36585,999,11814,0,.6E-6,0
BEIDOU-2 IGSO-1 (C06),2010-036A,2026-07-14T22:00:55.325664,1.00264344,.0059021,54.3063,162.7092,225.2797,342.1037,0,U,36828,999,5837,0,-.122E-5,0
BEIDOU-2 G4 (C04),2010-057A,2026-07-14T19:18:41.259744,1.00269752,.0005743,3.7129,68.7668,184.4843,129.0009,0,U,37210,999,5756,0,-.124E-5,0
BEIDOU-2 IGSO-2 (C07),2010-068A,2026-07-14T15:38:16.497312,1.00273103,.0056996,47.4976,271.4891,213.8254,150.0718,0,U,37256,999,5707,0,-.189E-5,0
BEIDOU-2 IGSO-3 (C08),2011-013A,2026-07-12T12:18:07.725024,1.00260977,.0035266,62.4426,39.9128,183.3051,358.3524,0,U,37384,999,5591,0,-.165E-5,0
GSAT-8 (GAGAN/PRN 127),2011-022A,2026-07-14T20:50:18.211776,1.00273147,.0002706,2.2005,81.4859,164.8469,54.0547,0,U,37605,999,5349,0,.74E-6,0
BEIDOU-2 IGSO-4 (C09),2011-038A,2026-07-12T21:52:21.720000,1.00279714,.01603423,54.6038,165.4445,231.4539,316.2369,0,U,37763,999,5490,0,-.17E-6,0
GSAT0101 (GALILEO-PFM),2011-060A,2026-07-14T10:01:43.931712,1.70475546,.00022697,56.9846,341.0235,61.6458,298.3624,0,U,37846,999,9158,0,-.98E-6,0
GSAT0102 (GALILEO-FM2),2011-060B,2026-07-14T15:08:33.811296,1.70475832,.0002126,56.9853,341.0182,7.9105,168.5153,0,U,37847,999,9159,0,-.98E-6,0
COSMOS 2476 (744),2011-064A,2026-07-13T10:44:05.012736,2.13103772,.00221411,65.2845,71.9855,236.0231,274.5611,0,U,37867,999,11432,0,-.11E-6,0
COSMOS 2477 (745),2011-064B,2026-07-14T03:46:08.969664,2.13102942,.00191364,65.2915,72.0412,236.8814,278.4747,0,U,37868,999,11433,0,-.9E-7,0
COSMOS 2475 (743),2011-064C,2026-07-14T05:59:11.267808,2.13101779,.00248319,65.2982,72.0599,251.2133,290.0274,0,U,37869,999,11434,0,-.9E-7,0
